start=new Date('2022-05-25T00:00:00.000Z').valueOf();
sats=[{"RA_OF_ASC_NODE":"185.5930","GP_ID":"204429570","MEAN_MOTION":"15.08824515","TLE_LINE1":"1 52100U 22029N   22144.91667824  .00035633  00000-0  22466-2 0  9991","LAUNCH_DATE":"2022-03-19","OBJECT_TYPE":"PAYLOAD","TLE_LINE2":"2 52100  53.2145 185.5930 0001243  70.2658 306.7805 15.08824515 11605","ELEMENT_SET_NO":"999","OBJECT_NAME":"STARLINK-3702","DECAY_DATE":null,"INCLINATION":"53.2145","RCS_SIZE":"LARGE","PERIOD":"95.439","MEAN_ELEMENT_THEORY":"SGP4","CLASSIFICATION_TYPE":"U","APOAPSIS":"540.653","NORAD_CAT_ID":"52100","SEMIMAJOR_AXIS":"6917.928","CENTER_NAME":"EARTH","MEAN_ANOMALY":"306.7805","TIME_SYSTEM":"UTC","BSTAR":"0.00224660000000","COUNTRY_CODE":"US","SITE":"AFETR","ARG_OF_PERICENTER":"70.2658","MEAN_MOTION_DOT":"0.00035633","FILE":"3462574","REF_FRAME":"TEME","REV_AT_EPOCH":"1160","ECCENTRICITY":"0.00012430","MEAN_MOTION_DDOT":"0.0000000000000","PERIAPSIS":"538.933","EPHEMERIS_TYPE":"0","OBJECT_ID":"2022-029N","EPOCH":"2022-05-24T22:00:00.999936"},{"TLE_LINE1":"1 52101U 22029P   22144.91667824 -.00050552  00000-0 -31785-2 0  9995","MEAN_MOTION":"15.08864053","RA_OF_ASC_NODE":"185.5945","GP_ID":"204424329","TLE_LINE2":"2 52101  53.2159 185.5945 0001404  63.1810 353.9600 15.08864053 11593","LAUNCH_DATE":"2022-03-19","OBJECT_TYPE":"PAYLOAD","RCS_SIZE":"LARGE","MEAN_ELEMENT_THEORY":"SGP4","PERIOD":"95.436","DECAY_DATE":null,"INCLINATION":"53.2159","OBJECT_NAME":"STARLINK-3703","ELEMENT_SET_NO":"999","NORAD_CAT_ID":"52101","APOAPSIS":"540.643","CLASSIFICATION_TYPE":"U","BSTAR":"-0.00317850000000","TIME_SYSTEM":"UTC","CENTER_NAME":"EARTH","MEAN_ANOMALY":"353.9600","SEMIMAJOR_AXIS":"6917.807","SITE":"AFETR","COUNTRY_CODE":"US","REF_FRAME":"TEME","FILE":"3462339","MEAN_MOTION_DOT":"-0.00050552","ARG_OF_PERICENTER":"63.1810","EPHEMERIS_TYPE":"0","EPOCH":"2022-05-24T22:00:00.999936","OBJECT_ID":"2022-029P","PERIAPSIS":"538.701","ECCENTRICITY":"0.00014040","MEAN_MOTION_DDOT":"0.0000000000000","REV_AT_EPOCH":"1159"},{"TLE_LINE2":"2 52102  53.2175 177.8014 0001730  38.6865 243.3223 15.37113835  1300","LAUNCH_DATE":"2022-03-19","OBJECT_TYPE":"PAYLOAD","MEAN_MOTION":"15.37113835","TLE_LINE1":"1 52102U 22029Q   22144.91667824 -.00578725  00000-0 -16923-1 0  9999","RA_OF_ASC_NODE":"177.8014","GP_ID":"204458381","NORAD_CAT_ID":"52102","APOAPSIS":"455.833","CLASSIFICATION_TYPE":"U","RCS_SIZE":"LARGE","PERIOD":"93.682","MEAN_ELEMENT_THEORY":"SGP4","DECAY_DATE":null,"INCLINATION":"53.2175","OBJECT_NAME":"STARLINK-3709","ELEMENT_SET_NO":"999","SITE":"AFETR","COUNTRY_CODE":"US","BSTAR":"-0.01692300000000","TIME_SYSTEM":"UTC","CENTER_NAME":"EARTH","MEAN_ANOMALY":"243.3223","SEMIMAJOR_AXIS":"6832.786","EPHEMERIS_TYPE":"0","OBJECT_ID":"2022-029Q","EPOCH":"2022-05-24T22:00:00.999936","PERIAPSIS":"453.469","ECCENTRICITY":"0.00017300","MEAN_MOTION_DDOT":"0.0000000000000","REV_AT_EPOCH":"130","REF_FRAME":"TEME","FILE":"3462783","ARG_OF_PERICENTER":"38.6865","MEAN_MOTION_DOT":"-0.00578725"},{"REV_AT_EPOCH":"130","MEAN_MOTION_DDOT":"0.0000000000000","ECCENTRICITY":"0.00015930","PERIAPSIS":"454.477","EPOCH":"2022-05-24T22:00:00.999936","OBJECT_ID":"2022-029R","EPHEMERIS_TYPE":"0","MEAN_MOTION_DOT":"-0.00715136","ARG_OF_PERICENTER":"40.9185","FILE":"3462783","REF_FRAME":"TEME","COUNTRY_CODE":"US","SITE":"AFETR","SEMIMAJOR_AXIS":"6833.700","MEAN_ANOMALY":"269.7338","CENTER_NAME":"EARTH","TIME_SYSTEM":"UTC","BSTAR":"-0.02120500000000","CLASSIFICATION_TYPE":"U","APOAPSIS":"456.654","NORAD_CAT_ID":"52103","ELEMENT_SET_NO":"999","OBJECT_NAME":"STARLINK-3705","INCLINATION":"53.2175","DECAY_DATE":null,"PERIOD":"93.701","MEAN_ELEMENT_THEORY":"SGP4","RCS_SIZE":"LARGE","OBJECT_TYPE":"PAYLOAD","LAUNCH_DATE":"2022-03-19","TLE_LINE2":"2 52103  53.2175 177.5059 0001593  40.9185 269.7338 15.36805342  1304","GP_ID":"204457641","RA_OF_ASC_NODE":"177.5059","TLE_LINE1":"1 52103U 22029R   22144.91667824 -.00715136  00000-0 -21205-1 0  9998","MEAN_MOTION":"15.36805342"},{"CENTER_NAME":"EARTH","MEAN_ANOMALY":"284.0930","SEMIMAJOR_AXIS":"6832.684","BSTAR":"-0.02097500000000","TIME_SYSTEM":"UTC","SITE":"AFETR","COUNTRY_CODE":"US","FILE":"3462574","MEAN_MOTION_DOT":"-0.00715304","ARG_OF_PERICENTER":"38.6392","REF_FRAME":"TEME","ECCENTRICITY":"0.00016160","MEAN_MOTION_DDOT":"0.0000000000000","REV_AT_EPOCH":"1169","EPHEMERIS_TYPE":"0","EPOCH":"2022-05-24T22:00:00.999936","OBJECT_ID":"2022-029T","PERIAPSIS":"453.445","TLE_LINE1":"1 52105U 22029T   22144.91667824 -.00715304  00000-0 -20975-1 0  9990","MEAN_MOTION":"15.37148341","RA_OF_ASC_NODE":"177.5222","GP_ID":"204429563","TLE_LINE2":"2 52105  53.2174 177.5222 0001616  38.6392 284.0930 15.37148341 11698","OBJECT_TYPE":"PAYLOAD","LAUNCH_DATE":"2022-03-19","OBJECT_NAME":"STARLINK-3706","ELEMENT_SET_NO":"999","RCS_SIZE":"LARGE","MEAN_ELEMENT_THEORY":"SGP4","PERIOD":"93.680","INCLINATION":"53.2174","DECAY_DATE":null,"CLASSIFICATION_TYPE":"U","NORAD_CAT_ID":"52105","APOAPSIS":"455.653"},{"CLASSIFICATION_TYPE":"U","APOAPSIS":"540.784","NORAD_CAT_ID":"52106","ELEMENT_SET_NO":"999","OBJECT_NAME":"STARLINK-3670","INCLINATION":"53.2169","DECAY_DATE":null,"RCS_SIZE":"LARGE","MEAN_ELEMENT_THEORY":"SGP4","PERIOD":"95.441","OBJECT_TYPE":"PAYLOAD","LAUNCH_DATE":"2022-03-19","TLE_LINE2":"2 52106  53.2169 185.5970 0001279  63.6169  13.5137 15.08789535  1302","RA_OF_ASC_NODE":"185.5970","GP_ID":"204457748","MEAN_MOTION":"15.08789535","TLE_LINE1":"1 52106U 22029U   22144.91667824 -.00020875  00000-0 -12991-2 0  9993","REV_AT_EPOCH":"130","ECCENTRICITY":"0.00012790","MEAN_MOTION_DDOT":"0.0000000000000","PERIAPSIS":"539.015","EPHEMERIS_TYPE":"0","OBJECT_ID":"2022-029U","EPOCH":"2022-05-24T22:00:00.999936","ARG_OF_PERICENTER":"63.6169","MEAN_MOTION_DOT":"-0.00020875","FILE":"3462783","REF_FRAME":"TEME","COUNTRY_CODE":"US","SITE":"AFETR","SEMIMAJOR_AXIS":"6918.035","CENTER_NAME":"EARTH","MEAN_ANOMALY":"13.5137","TIME_SYSTEM":"UTC","BSTAR":"-0.00129910000000"},{"MEAN_MOTION_DOT":"-0.00715380","ARG_OF_PERICENTER":"43.1610","FILE":"3462783","REF_FRAME":"TEME","REV_AT_EPOCH":"130","MEAN_MOTION_DDOT":"0.0000000000000","ECCENTRICITY":"0.00015060","PERIAPSIS":"452.798","OBJECT_ID":"2022-029V","EPOCH":"2022-05-24T22:00:00.999936","EPHEMERIS_TYPE":"0","SEMIMAJOR_AXIS":"6831.962","MEAN_ANOMALY":"288.4636","CENTER_NAME":"EARTH","TIME_SYSTEM":"UTC","BSTAR":"-0.02081200000000","COUNTRY_CODE":"US","SITE":"AFETR","ELEMENT_SET_NO":"999","OBJECT_NAME":"STARLINK-3658","DECAY_DATE":null,"INCLINATION":"53.2174","MEAN_ELEMENT_THEORY":"SGP4","PERIOD":"93.665","RCS_SIZE":"LARGE","CLASSIFICATION_TYPE":"U","APOAPSIS":"454.856","NORAD_CAT_ID":"52107","GP_ID":"204458288","RA_OF_ASC_NODE":"177.5332","TLE_LINE1":"1 52107U 22029V   22144.91667824 -.00715380  00000-0 -20812-1 0  9996","MEAN_MOTION":"15.37391960","LAUNCH_DATE":"2022-03-19","OBJECT_TYPE":"PAYLOAD","TLE_LINE2":"2 52107  53.2174 177.5332 0001506  43.1610 288.4636 15.37391960  1309"},{"GP_ID":"204429501","RA_OF_ASC_NODE":"177.5156","TLE_LINE1":"1 52108U 22029W   22144.91667824 -.00715044  00000-0 -21066-1 0  9996","MEAN_MOTION":"15.37003670","LAUNCH_DATE":"2022-03-19","OBJECT_TYPE":"PAYLOAD","TLE_LINE2":"2 52108  53.2174 177.5156 0001547  41.8708 275.6729 15.37003670 11694","DECAY_DATE":null,"INCLINATION":"53.2174","PERIOD":"93.689","MEAN_ELEMENT_THEORY":"SGP4","RCS_SIZE":"LARGE","ELEMENT_SET_NO":"999","OBJECT_NAME":"STARLINK-3698","APOAPSIS":"456.035","NORAD_CAT_ID":"52108","CLASSIFICATION_TYPE":"U","TIME_SYSTEM":"UTC","BSTAR":"-0.02106600000000","SEMIMAJOR_AXIS":"6833.113","MEAN_ANOMALY":"275.6729","CENTER_NAME":"EARTH","COUNTRY_CODE":"US","SITE":"AFETR","REF_FRAME":"TEME","MEAN_MOTION_DOT":"-0.00715044","ARG_OF_PERICENTER":"41.8708","FILE":"3462570","PERIAPSIS":"453.920","EPOCH":"2022-05-24T22:00:00.999936","OBJECT_ID":"2022-029W","EPHEMERIS_TYPE":"0","REV_AT_EPOCH":"1169","MEAN_MOTION_DDOT":"0.0000000000000","ECCENTRICITY":"0.00015470"},{"OBJECT_TYPE":"PAYLOAD","LAUNCH_DATE":"2022-03-19","TLE_LINE2":"2 52110  53.2174 177.5239 0001619  38.3918 286.5227 15.37193586  1300","RA_OF_ASC_NODE":"177.5239","GP_ID":"204457855","MEAN_MOTION":"15.37193586","TLE_LINE1":"1 52110U 22029Y   22144.91667824 -.00715333  00000-0 -20945-1 0  9995","CLASSIFICATION_TYPE":"U","APOAPSIS":"455.521","NORAD_CAT_ID":"52110","ELEMENT_SET_NO":"999","OBJECT_NAME":"STARLINK-3687","DECAY_DATE":null,"INCLINATION":"53.2174","RCS_SIZE":"LARGE","PERIOD":"93.677","MEAN_ELEMENT_THEORY":"SGP4","COUNTRY_CODE":"US","SITE":"AFETR","SEMIMAJOR_AXIS":"6832.550","CENTER_NAME":"EARTH","MEAN_ANOMALY":"286.5227","TIME_SYSTEM":"UTC","BSTAR":"-0.02094500000000","REV_AT_EPOCH":"130","ECCENTRICITY":"0.00016190","MEAN_MOTION_DDOT":"0.0000000000000","PERIAPSIS":"453.309","EPHEMERIS_TYPE":"0","EPOCH":"2022-05-24T22:00:00.999936","OBJECT_ID":"2022-029Y","ARG_OF_PERICENTER":"38.3918","MEAN_MOTION_DOT":"-0.00715333","FILE":"3462783","REF_FRAME":"TEME"},{"OBJECT_TYPE":"PAYLOAD","LAUNCH_DATE":"2022-03-19","TLE_LINE2":"2 52111  53.2174 177.5606 0001584  37.2613 314.1977 15.37983383  1302","RA_OF_ASC_NODE":"177.5606","GP_ID":"204458080","MEAN_MOTION":"15.37983383","TLE_LINE1":"1 52111U 22029Z   22144.91667824 -.00715596  00000-0 -20420-1 0  9995","CLASSIFICATION_TYPE":"U","APOAPSIS":"453.157","NORAD_CAT_ID":"52111","ELEMENT_SET_NO":"999","OBJECT_NAME":"STARLINK-3708","DECAY_DATE":null,"INCLINATION":"53.2174","RCS_SIZE":"LARGE","PERIOD":"93.629","MEAN_ELEMENT_THEORY":"SGP4","COUNTRY_CODE":"US","SITE":"AFETR","SEMIMAJOR_AXIS":"6830.210","CENTER_NAME":"EARTH","MEAN_ANOMALY":"314.1977","TIME_SYSTEM":"UTC","BSTAR":"-0.02042000000000","REV_AT_EPOCH":"130","ECCENTRICITY":"0.00015840","MEAN_MOTION_DDOT":"0.0000000000000","PERIAPSIS":"450.993","EPHEMERIS_TYPE":"0","EPOCH":"2022-05-24T22:00:00.999936","OBJECT_ID":"2022-029Z","MEAN_MOTION_DOT":"-0.00715596","ARG_OF_PERICENTER":"37.2613","FILE":"3462783","REF_FRAME":"TEME"}];
